0 UBAKUSAT
1 43466U 98067NP  19164.80920939  .00017410  00000-0  17185-3 0  9992
2 43466  51.6383 359.2072 0001354 119.5716 240.5415 15.66016668 62152
0 IRAZU
1 43468U 98067NR  19164.80713435  .00025410  00000-0  22196-3 0  9992
2 43468  51.6371 356.1724 0001278 141.4041 218.7047 15.68776102162181
0 LONGJIANG 2
1 43472U 18045C   18140.97000001 -.00010094 +00000-0 +00000-0 0  9994
2 43472 027.5020 209.5210 9658153 171.2240 002.0960 00.09844104000019
0 BEIDOU IGSO-7
1 43539U 18057A   19164.85157648 -.00000054  00000-0  00000+0 0  9999
2 43539  55.0355 185.6457 0024038 201.4281 294.6035  1.00279334  3483
0 CUBERRT
1 43546U 98067NU  19164.85021683 +.00026369 +00000-0 +27402-3 0  9990
2 43546 051.6387 003.9783 0005475 116.0511 244.1048 15.64409899052230
0 TEMPEST-D
1 43547U 98067NV  19164.91686285 +.00003586 +00000-0 +53661-4 0  9996
2 43547 051.6393 010.4218 0006310 105.1156 255.0534 15.57928373051838
0 RAINCUBE
1 43548U 98067NW  19165.18265830  .00011795  00000-0  14180-3 0  9999
2 43548  51.6379   5.4343 0006141 118.7535 241.4076 15.61322283 52372
0 HALOSAT
1 43549U 98067NX  19164.80235713 +.00011371 +00000-0 +13731-3 0  9996
2 43549 051.6386 007.4048 0006097 119.0610 241.0995 15.61250386051877
0 RADIX
1 43550U 98067NY  19165.17004121  .00021908  00000-0  21588-3 0  9992
2 43550  51.6363   0.8190 0004893 139.4831 220.6529 15.65875070 52450
0 EQUISAT
1 43552U 98067PA  19164.80487147  .00010087  00000-0  12105-3 0  9997
2 43552  51.6398   6.6941 0006728 126.3764 233.7852 15.61562973 52250
0 AEROCUBE 12A
1 43556U 18046C   19164.94507814 +.00000442 +00000-0 +28293-4 0  9999
2 43556 051.6435 079.4216 0009033 054.8758 305.3068 15.28696206050836
0 AEROCUBE 12B
1 43557U 18046D   19165.15433212  .00001084  00000-0  51095-4 0  9993
2 43557  51.6438  78.5655 0009008  55.3831 304.7997 15.28572294 50819
0 LEMUR 2 VU
1 43558U 18046E   19164.93304879 +.00001169 +00000-0 +52974-4 0  9996
2 43558 051.6420 078.6173 0008601 056.2518 303.9280 15.29320827050839
0 LEMUR 2 ALEXANDER
1 43559U 18046F   19164.92563163 +.00001401 +00000-0 +60854-4 0  9994
2 43559 051.6415 078.5701 0008529 057.0587 303.1213 15.29409494050616
0 LEMUR 2 YUASA
1 43560U 18046G   19165.26314138  .00001125  00000-0  51518-4 0  9990
2 43560  51.6432  77.0642 0008953  69.6104 290.5837 15.29296544 50880
0 GALILEO 26 (2C2)
1 43565U 18060B   19164.84402515 -.00000092  00000-0  00000+0 0  9999
2 43565  56.5614  51.1910 0003602 304.0551  55.9479  1.70475573  5562
0 GALILEO 23 (2C9)
1 43566U 18060C   19163.30423085 -.00000090  00000-0  00000+0 0  9993
2 43566  56.5608  51.2351 0003162 300.9042  59.0985  1.70475403  5511
0 GALILEO 24 (2C0)
1 43567U 18060D   19159.41801237 -.00000072  00000-0  00000+0 0  9990
2 43567  56.5578  51.3429 0003495 301.8894  58.1173  1.70475214  5428
0 SIRIUSSAT-1
1 43595U 98067PG  19164.97010217  .00011877  00000-0  14485-3 0  9993
2 43595  51.6374   7.7524 0004119  97.4371 262.7090 15.60945784 47102
0 SIRIUSSAT-2
1 43596U 98067PH  19165.00000360  .00011085  00000-0  13644-3 0  9994
2 43596  51.6384   7.9857 0004658  97.3575 262.7948 15.60784308 47103
0 OBJECT PN
1 43638U 98067PN  19164.85836377  .00005914  00000-0  84311-4 0  9992
2 43638  51.6394  12.2819 0003394  84.7189 275.4190 15.57874512 38951
0 BEIDOU 3M18
1 43707U 18093B   19164.46849906 -.00000059  00000-0  00000+0 0  9993
2 43707  54.8599 269.6515 0007645 272.8285  95.4600  1.86231864  3841
0 OBJECT D
1 43935U 19003D   19165.50349828  .00000550  00000-0  26908-4 0  9997
2 43935  97.2825 223.3183 0020411  92.9131  18.9666 15.22045896 22422
0 DELPHINI
1 44030U 98067PW  19164.85455723  .00009274  00000-0  13524-3 0  9991
2 44030  51.6392  15.2556 0005362 126.0281 234.1208 15.56458053 20799
0 UNITE
1 44031U 98067PX  19164.82374055 +.00005448 +00000-0 +84883-4 0  9993
2 44031 051.6399 015.8016 0004016 121.5167 238.6217 15.55609565020785
0 TECHEDSAT 8
1 44032U 98067PY  19165.18071020  .00022046  00000-0  27882-3 0  9998
2 44032  51.6391  12.1856 0004494 128.3117 231.8280 15.59433641 20846
0 CATSAT-1
1 44033U 98067PZ  19164.79537567  .00009338  00000-0  13676-3 0  9993
2 44033  51.6403  15.6194 0005443 126.0558 234.0938 15.56329941 20729
0 OBJECT F
1 44045U 18092F   19165.48841237  .00001884  00000-0  65918-4 0  9990
2 44045  51.6433  31.2518 0012537  74.7035 285.5415 15.34907981 18595
0 ONEWEB-0012
1 44057U 19010A   19165.19774056  .00000158  00000-0  38675-3 0  9998
2 44057  87.8995  48.0100 0001989  75.0745 285.0509 13.15296625 14235
0 ONEWEB-0011
1 44062U 19010F   19165.37424583  .00000024  00000-0  27736-4 0  9990
2 44062  88.0493  47.9438 0011246 310.6810  49.3346 13.22868837 14460
0 M6P
1 44109U 19018AF  19165.48197050  .00001779  00000-0  61078-4 0  9993
2 44109  97.5094 226.7729 0062298  79.4112  47.6340 15.29689884 11152
0 HARBINGER
1 44229U 19026E   19165.53361804  .00000593  00000-0  34691-4 0  9995
2 44229  40.0215 359.7452 0007575 214.4752 145.5596 15.20479283  6124
0 BEIDOU-2 G8
1 44231U 19027A   19164.88313118 -.00000146 +00000-0 +00000-0 0  9999
2 44231 001.8138 293.9698 0003048 129.5444 236.3669 01.00271972000427
0 OBJECT A
1 44235U 19029A   19165.35357195 -.01017254  00000-0 -70872-1 0  9996
2 44235  52.9949  76.8240 0003323 107.3865 252.7487 15.07733119  4484
0 OBJECT AA
1 44259U 19029AA  19159.44759213 -.00744824  00000-0 -32746-1 0  9999
2 44259  53.0007 103.0246 0002024 106.0599 254.0620 15.23864773  2439
